[{"OBJECT_NAME":"OBJECT D","OBJECT_ID":"2024-174D","EPOCH":"2026-03-10T00:15:10.483200","MEAN_MOTION":15.28039787,"ECCENTRICITY":0.00110644,"INCLINATION":97.4441,"RA_OF_ASC_NODE":80.4677,"ARG_OF_PERICENTER":212.9968,"MEAN_ANOMALY":147.0582,"EPHEMERIS_TYPE":0,"CLASSIFICATION_TYPE":"U","NORAD_CAT_ID":61241,"ELEMENT_SET_NO":999,"REV_AT_EPOCH":8076,"BSTAR":0.00036340099,"MEAN_MOTION_DOT":9.884e-5,"MEAN_MOTION_DDOT":0},{"OBJECT_NAME":"STARLINK-35485","OBJECT_ID":"2025-245T","EPOCH":"2026-03-09T20:34:31.389600","MEAN_MOTION":15.30187722,"ECCENTRICITY":0.00010902,"INCLINATION":53.1586,"RA_OF_ASC_NODE":283.0093,"ARG_OF_PERICENTER":152.8442,"MEAN_ANOMALY":207.2616,"EPHEMERIS_TYPE":0,"CLASSIFICATION_TYPE":"U","NORAD_CAT_ID":66251,"ELEMENT_SET_NO":999,"REV_AT_EPOCH":2106,"BSTAR":0.0014295218,"MEAN_MOTION_DOT":0.00042204,"MEAN_MOTION_DDOT":0}]
